INTELSAT 23 (IS-23)     
1 38867U 12057A   26064.80852925 -.00000291  00000+0  00000+0 0  9995
2 38867   0.0501 262.3311 0001199  90.5526  48.7155  1.00270074 48918
FM-6                    
1 39360U 13058A   26064.63156826 -.00000025  00000+0  00000+0 0  9999
2 39360   0.0240 127.8287 0002875  59.2462  87.4741  1.00276991 45032
INTELSAT 30 (IS-30)     
1 40271U 14062A   26064.56440130 -.00000159  00000+0  00000+0 0  9992
2 40271   0.0181  82.8340 0001495  21.4386 167.1592  1.00275127  5757
DIRECTV 14              
1 40333U 14078B   26064.63477493  .00000000  00000+0  00000+0 0  9992
2 40333   0.0223 140.6418 0000595 348.2371 163.7954  1.00271102 41007
DIRECTV 15              
1 40663U 15026A   26064.63416826 -.00000109  00000+0  00000+0 0  9996
2 40663   0.0224 103.7211 0000470 108.8780  76.1752  1.00270077 39427
SKY MEXICO-1            
1 40664U 15026B   26064.42495398 -.00000242  00000+0  00000+0 0  9993
2 40664   0.0200 125.8533 0002250 238.8701 232.6041  1.00269501 39418
INTELSAT 34 (IS-34)     
1 40874U 15039A   26064.81581955  .00000000  00000+0  00000+0 0  9999
2 40874   0.0155 178.2365 0000514 270.4265 313.1021  1.00267560 38586
INTELSAT 31 (IS-31)     
1 41581U 16035A   26064.56440130 -.00000158  00000+0  00000+0 0  9998
2 41581   0.0348 245.7007 0001662 349.8607  35.8608  1.00271059 35646
INTELSAT 36 (IS-36)     
1 41747U 16053A   26064.55705715 -.00000031  00000+0  00000+0 0  9994
2 41747   0.0200  99.8975 0001513 233.3854  99.0273  1.00269299 34917
INTELSAT 32E (IS-32E)   
1 41945U 17007B   26064.50338767 -.00000276  00000+0  00000+0 0  9999
2 41945   0.0110 118.1682 0000302 237.3310 305.7579  1.00275199 33183
INTELSAT 35E (IS-35E)   
1 42818U 17041A   26064.17683490 -.00000247  00000+0  00000+0 0  9994
2 42818   0.0257 241.7413 0002225 103.6087 206.6952  1.00270890 31772
INTELSAT 37E (IS-37E)   
1 42950U 17059A   26064.65098167 -.00000148  00000+0  00000+0 0  9994
2 42950   0.0190 145.8008 0002137 202.1243  31.7949  1.00271717 31020
AZERSPACE 2 (IS-38)     
1 43632U 18074A   26064.31642096  .00000000  00000+0  00000+0 0  9995
2 43632   0.0249 144.2303 0001446 216.1159 321.7363  1.00271143 27409
HORIZONS-3E             
1 43633U 18074B   26064.72891879 -.00000038  00000+0  00000+0 0  9998
2 43633   0.0208 270.4294 0000557  65.2436 259.1632  1.00271607 27306
AT&T T-16               
1 44333U 19034A   26064.63451493 -.00000122  00000+0  00000+0 0  9991
2 44333   0.0230 102.0482 0000951  67.1555 121.7122  1.00272659 24593
INTELSAT 39 (IS-39)     
1 44476U 19049B   26064.45286078  .00000000  00000+0  00000+0 0  9994
2 44476   0.0244 149.9814 0000721 354.7122 243.4677  1.00269682 24088
GALAXY 30 (G-30)        
1 46114U 20056C   26064.62974824  .00000000  00000+0  00000+0 0  9997
2 46114   0.0225 160.3254 0002069 192.9294 271.8285  1.00271232 20251
